BLUEBON                 
1 62688U 25009CH  26068.70316231  .00010452  00000+0  37313-3 0  9992
2 62688  97.4017 152.2033 0001193  43.3900 316.7434 15.29047253 63767
STARLINK-35309          
1 66323U 25253E   26068.44853025  .00028955  00000+0  10574-2 0  9997
2 66323  43.0018 214.2055 0001941 253.3362 106.7276 15.27587607 20207
